IRIDIUM 155             
1 43573U 18061E   21338.22506957  .00000140  00000+0  42918-4 0  9993
2 43573  86.3987  28.7429 0002273  83.2578 276.8877 14.34215432176002
IRIDIUM 154             
1 43574U 18061F   21338.41536036  .00000133  00000+0  40320-4 0  9993
2 43574  86.3990  28.7177 0002381 100.1724 259.9741 14.34218603176082
IRIDIUM 163             
1 43575U 18061G   21338.18703431  .00000127  00000+0  38200-4 0  9990
2 43575  86.3989  28.7792 0001789 102.0626 258.0771 14.34218157176028
IRIDIUM 156             
1 43576U 18061H   21338.23142949  .00000129  00000+0  38904-4 0  9991
2 43576  86.3989  28.7658 0001925  89.5639 270.5777 14.34216683176022
IRIDIUM 164             
1 43577U 18061J   21338.42170095  .00000135  00000+0  41116-4 0  9992
2 43577  86.3991  28.7015 0002216 100.9349 259.2096 14.34217045176091
IRIDIUM 159             
1 43578U 18061K   21338.18069679  .00000199  00000+0  64130-4 0  9992
2 43578  86.3989  28.7738 0002269  99.2366 260.9087 14.34218660176024
IRIDIUM 180             
1 43922U 19002A   21338.24996357  .00000103  00000+0  29627-4 0  9997
2 43922  86.3947 325.6172 0002317 112.1096 248.0346 14.34217665151641
IRIDIUM 176             
1 43923U 19002B   21338.26178684  .00000231  00000+0  32711-4 0  9995
2 43923  86.6080 325.6470 0002581  89.2534 270.8979 14.72247928155611
IRIDIUM 168             
1 43924U 19002C   21338.24360805  .00000100  00000+0  28630-4 0  9992
2 43924  86.3949 325.6504 0002317  96.0935 264.0524 14.34217127151623
IRIDIUM 173             
1 43925U 19002D   21338.23091677  .00000100  00000+0  28619-4 0  9997
2 43925  86.3946 325.6119 0002204  95.3079 264.8368 14.34216456151605
IRIDIUM 169             
1 43926U 19002E   21338.33803760  .00000133  00000+0  37011-4 0  9995
2 43926  86.4227 357.1673 0006296  51.4746 308.7015 14.38610423152168
IRIDIUM 172             
1 43927U 19002F   21338.43389545  .00000102  00000+0  29357-4 0  9997
2 43927  86.3945 325.5298 0002234  97.4801 262.6648 14.34217841151642
IRIDIUM 175             
1 43928U 19002G   21338.25558958  .00000229  00000+0  32449-4 0  9990
2 43928  86.6082 325.4741 0002223 101.1859 258.9608 14.72253451155607
IRIDIUM 171             
1 43929U 19002H   21338.20555372  .00000097  00000+0  27519-4 0  9998
2 43929  86.3954 325.7478 0002329  95.6460 264.5002 14.34217348151605
IRIDIUM 170             
1 43930U 19002J   21337.99611141  .00000217  00000+0  30488-4 0  9995
2 43930  86.6079 325.7640 0002429  95.6090 264.5404 14.72247169155582
IRIDIUM 167             
1 43931U 19002K   21338.26896213  .00000044  00000+0  85645-5 0  9996
2 43931  86.3946 325.6067 0002315 105.3278 254.8174 14.34215124151616
